1 29155U 06018A   11274.42009683 -.00000267 +00000-0 +10000-3 0 07644
2 29155 000.1333 077.6771 0003370 034.0799 334.0438 01.00261437019643